{"type": "FeatureCollection", "features": [ {"type": "Feature", "properties": {"norad_id": 67041, "name": "STARLINK-35765", "group": "last-30-days", "lat": 34.75510734194284, "lon": -134.1350258987435, "alt_km": 375.20570491871877, "timestamp": "2025-12-27T04:40:44.221612+00:00", "meta": {"OBJECT_NAME": "STARLINK-35765", "OBJECT_ID": "2025-294M", "EPOCH": "2025-12-26T22:00:01.999584", "MEAN_MOTION": 15.63996713, "ECCENTRICITY": 0.00016679, "INCLINATION": 42.9993, "RA_OF_ASC_NODE": 95.6516, "ARG_OF_PERICENTER": 281.1545, "MEAN_ANOMALY": 74.0293, "EPHEMERIS_TYPE": 0, "CLASSIFICATION_TYPE": "U", "NORAD_CAT_ID": 67041, "ELEMENT_SET_NO": 999, "REV_AT_EPOCH": 238, "BSTAR": -0.02302979, "MEAN_MOTION_DOT": -0.01969826, "MEAN_MOTION_DDOT": 0}, "tle": {"line1": "1 67041U 25294M   25360.91668981 -.01969826  00000+0 -23030-1 0  9995", "line2": "2 67041  42.9993  95.6516 0001667 281.1545  74.0293 15.63996713  2382"}}, "geometry": {"type": "Point", "coordinates": [-134.1350258987435, 34.75510734194284]}}, {"type": "Feature", "properties": {"norad_id": 67042, "name": "STARLINK-35773", "group": "last-30-days", "lat": 33.81037058310728, "lon": -131.96053569550813, "alt_km": 375.3285268191594, "timestamp": "2025-12-27T04:40:44.221622+00:00", "meta": {"OBJECT_NAME": "STARLINK-35773", "OBJECT_ID": "2025-294N", "EPOCH": "2025-12-26T22:00:01.999584", "MEAN_MOTION": 15.63987459, "ECCENTRICITY": 0.00016069, "INCLINATION": 42.9994, "RA_OF_ASC_NODE": 95.6466, "ARG_OF_PERICENTER": 280.81, "MEAN_ANOMALY": 76.4152, "EPHEMERIS_TYPE": 0, "CLASSIFICATION_TYPE": "U", "NORAD_CAT_ID": 67042, "ELEMENT_SET_NO": 999, "REV_AT_EPOCH": 258, "BSTAR": -0.023055265, "MEAN_MOTION_DOT": -0.01971054, "MEAN_MOTION_DDOT": 0}, "tle": {"line1": "1 67042U 25294N   25360.91668981 -.01971054  00000+0 -23055-1 0  9999", "line2": "2 67042  42.9994  95.6466 0001606 280.8100  76.4152 15.63987459  2583"}}, "geometry": {"type": "Point", "coordinates": [-131.96053569550813, 33.81037058310728]}}, {"type": "Feature", "properties": {"norad_id": 67043, "name": "STARLINK-35901", "group": "last-30-days", "lat": 32.83186646370359, "lon": -129.8428012739588, "alt_km": 375.56124703264777, "timestamp": "2025-12-27T04:40:44.221631+00:00", "meta": {"OBJECT_NAME": "STARLINK-35901", "OBJECT_ID": "2025-294P", "EPOCH": "2025-12-26T22:00:01.999584", "MEAN_MOTION": 15.63977001, "ECCENTRICITY": 0.00016757, "INCLINATION": 42.9993, "RA_OF_ASC_NODE": 95.6416, "ARG_OF_PERICENTER": 282.9708, "MEAN_ANOMALY": 76.2881, "EPHEMERIS_TYPE": 0, "CLASSIFICATION_TYPE": "U", "NORAD_CAT_ID": 67043, "ELEMENT_SET_NO": 999, "REV_AT_EPOCH": 258, "BSTAR": -0.023054415, "MEAN_MOTION_DOT": -0.01970317, "MEAN_MOTION_DDOT": 0}, "tle": {"line1": "1 67043U 25294P   25360.91668981 -.01970317  00000+0 -23054-1 0  9990", "line2": "2 67043  42.9993  95.6416 0001675 282.9708  76.2881 15.63977001  2580"}}, "geometry": {"type": "Point", "coordinates": [-129.8428012739588, 32.83186646370359]}}, {"type": "Feature", "properties": {"norad_id": 67044, "name": "STARLINK-35884", "group": "last-30-days", "lat": 31.82990282723588, "lon": -127.79439081898471, "alt_km": 375.69487704187395, "timestamp": "2025-12-27T04:40:44.221643+00:00", "meta": {"OBJECT_NAME": "STARLINK-35884", "OBJECT_ID": "2025-294Q", "EPOCH": "2025-12-26T22:00:01.999584", "MEAN_MOTION": 15.63969185, "ECCENTRICITY": 0.00016339, "INCLINATION": 42.9996, "RA_OF_ASC_NODE": 95.6367, "ARG_OF_PERICENTER": 282.1718, "MEAN_ANOMALY": 79.0971, "EPHEMERIS_TYPE": 0, "CLASSIFICATION_TYPE": "U", "NORAD_CAT_ID": 67044, "ELEMENT_SET_NO": 999, "REV_AT_EPOCH": 258, "BSTAR": -0.023067606, "MEAN_MOTION_DOT": -0.01970734, "MEAN_MOTION_DDOT": 0}, "tle": {"line1": "1 67044U 25294Q   25360.91668981 -.01970734  00000+0 -23068-1 0  9999", "line2": "2 67044  42.9996  95.6367 0001633 282.1718  79.0971 15.63969185  2581"}}, "geometry": {"type": "Point", "coordinates": [-127.79439081898471, 31.82990282723588]}}, {"type": "Feature", "properties": {"norad_id": 67045, "name": "STARLINK-35891", "group": "last-30-days", "lat": 30.721814367622695, "lon": -125.65280044679486, "alt_km": 375.9125094541205, "timestamp": "2025-12-27T04:40:44.221655+00:00", "meta": {"OBJECT_NAME": "STARLINK-35891", "OBJECT_ID": "2025-294R", "EPOCH": "2025-12-26T22:00:01.999584", "MEAN_MOTION": 15.63946556, "ECCENTRICITY": 0.00016292, "INCLINATION": 42.9994, "RA_OF_ASC_NODE": 95.6311, "ARG_OF_PERICENTER": 281.9829, "MEAN_ANOMALY": 81.4504, "EPHEMERIS_TYPE": 0, "CLASSIFICATION_TYPE": "U", "NORAD_CAT_ID": 67045, "ELEMENT_SET_NO": 999, "REV_AT_EPOCH": 249, "BSTAR": -0.023077271, "MEAN_MOTION_DOT": -0.01969887, "MEAN_MOTION_DDOT": 0}, "tle": {"line1": "1 67045U 25294R   25360.91668981 -.01969887  00000+0 -23077-1 0  9997", "line2": "2 67045  42.9994  95.6311 0001629 281.9829  81.4504 15.63946556  2490"}}, "geometry": {"type": "Point", "coordinates": [-125.65280044679486, 30.721814367622695]}}, {"type": "Feature", "properties": {"norad_id": 67046, "name": "STARLINK-35721", "group": "last-30-days", "lat": 29.623487917622153, "lon": -123.63909140636679, "alt_km": 376.06779054445724, "timestamp": "2025-12-27T04:40:44.221667+00:00", "meta": {"OBJECT_NAME": "STARLINK-35721", "OBJECT_ID": "2025-294S", "EPOCH": "2025-12-26T22:00:01.999584", "MEAN_MOTION": 15.63934236, "ECCENTRICITY": 0.0001583, "INCLINATION": 42.9995, "RA_OF_ASC_NODE": 95.626, "ARG_OF_PERICENTER": 280.5777, "MEAN_ANOMALY": 84.9299, "EPHEMERIS_TYPE": 0, "CLASSIFICATION_TYPE": "U", "NORAD_CAT_ID": 67046, "ELEMENT_SET_NO": 999, "REV_AT_EPOCH": 258, "BSTAR": -0.02313584, "MEAN_MOTION_DOT": -0.01973393, "MEAN_MOTION_DDOT": 0}, "tle": {"line1": "1 67046U 25294S   25360.91668981 -.01973393  00000+0 -23136-1 0  9991", "line2": "2 67046  42.9995  95.6260 0001583 280.5777  84.9299 15.63934236  2582"}}, "geometry": {"type": "Point", "coordinates": [-123.63909140636679, 29.623487917622153]}}, {"type": "Feature", "properties": {"norad_id": 67047, "name": "STARLINK-35779", "group": "last-30-days", "lat": 28.45123708406085, "lon": -121.59449699394838, "alt_km": 376.3239437605689, "timestamp": "2025-12-27T04:40:44.221678+00:00", "meta": {"OBJECT_NAME": "STARLINK-35779", "OBJECT_ID": "2025-294T", "EPOCH": "2025-12-26T22:00:01.999584", "MEAN_MOTION": 15.63911399, "ECCENTRICITY": 0.00016131, "INCLINATION": 42.9996, "RA_OF_ASC_NODE": 95.6207, "ARG_OF_PERICENTER": 281.8749, "MEAN_ANOMALY": 85.7936, "EPHEMERIS_TYPE": 0, "CLASSIFICATION_TYPE": "U", "NORAD_CAT_ID": 67047, "ELEMENT_SET_NO": 999, "REV_AT_EPOCH": 238, "BSTAR": -0.023095447, "MEAN_MOTION_DOT": -0.01968802, "MEAN_MOTION_DDOT": 0}, "tle": {"line1": "1 67047U 25294T   25360.91668981 -.01968802  00000+0 -23095-1 0  9995", "line2": "2 67047  42.9996  95.6207 0001613 281.8749  85.7936 15.63911399  2382"}}, "geometry": {"type": "Point", "coordinates": [-121.59449699394838, 28.45123708406085]}}, {"type": "Feature", "properties": {"norad_id": 67048, "name": "STARLINK-35905", "group": "last-30-days", "lat": 27.363708998782183, "lon": -119.78087233976872, "alt_km": 376.5085768350373, "timestamp": "2025-12-27T04:40:44.221687+00:00", "meta": {"OBJECT_NAME": "STARLINK-35905", "OBJECT_ID": "2025-294U", "EPOCH": "2025-12-26T22:00:01.999584", "MEAN_MOTION": 15.63912207, "ECCENTRICITY": 0.00016858, "INCLINATION": 43.001, "RA_OF_ASC_NODE": 95.6156, "ARG_OF_PERICENTER": 280.2264, "MEAN_ANOMALY": 89.3841, "EPHEMERIS_TYPE": 0, "CLASSIFICATION_TYPE": "U", "NORAD_CAT_ID": 67048, "ELEMENT_SET_NO": 999, "REV_AT_EPOCH": 249, "BSTAR": -0.02319179, "MEAN_MOTION_DOT": -0.01976134, "MEAN_MOTION_DDOT": 0}, "tle": {"line1": "1 67048U 25294U   25360.91668981 -.01976134  00000+0 -23192-1 0  9991", "line2": "2 67048  43.0010  95.6156 0001685 280.2264  89.3841 15.63912207  2495"}}, "geometry": {"type": "Point", "coordinates": [-119.78087233976872, 27.363708998782183]}}, {"type": "Feature", "properties": {"norad_id": 67049, "name": "STARLINK-35877", "group": "last-30-days", "lat": 26.156081372098836, "lon": -117.85375664484339, "alt_km": 376.76351904981675, "timestamp": "2025-12-27T04:40:44.221698+00:00", "meta": {"OBJECT_NAME": "STARLINK-35877", "OBJECT_ID": "2025-294V", "EPOCH": "2025-12-26T22:00:01.999584", "MEAN_MOTION": 15.63890063, "ECCENTRICITY": 0.00016551, "INCLINATION": 43.0001, "RA_OF_ASC_NODE": 95.6105, "ARG_OF_PERICENTER": 284.2477, "MEAN_ANOMALY": 87.485, "EPHEMERIS_TYPE": 0, "CLASSIFICATION_TYPE": "U", "NORAD_CAT_ID": 67049, "ELEMENT_SET_NO": 999, "REV_AT_EPOCH": 258, "BSTAR": -0.023106089, "MEAN_MOTION_DOT": -0.01968154, "MEAN_MOTION_DDOT": 0}, "tle": {"line1": "1 67049U 25294V   25360.91668981 -.01968154  00000+0 -23106-1 0  9990", "line2": "2 67049  43.0001  95.6105 0001655 284.2477  87.4850 15.63890063  2581"}}, "geometry": {"type": "Point", "coordinates": [-117.85375664484339, 26.156081372098836]}}, {"type": "Feature", "properties": {"norad_id": 67050, "name": "STARLINK-36078", "group": "last-30-days", "lat": 24.91848289389161, "lon": -115.95871450274393, "alt_km": 376.9252913380042, "timestamp": "2025-12-27T04:40:44.221707+00:00", "meta": {"OBJECT_NAME": "STARLINK-36078", "OBJECT_ID": "2025-294W", "EPOCH": "2025-12-26T22:00:01.999584", "MEAN_MOTION": 15.63873178, "ECCENTRICITY": 0.00015963, "INCLINATION": 42.9999, "RA_OF_ASC_NODE": 95.6053, "ARG_OF_PERICENTER": 281.7812, "MEAN_ANOMALY": 92.0831, "EPHEMERIS_TYPE": 0, "CLASSIFICATION_TYPE": "U", "NORAD_CAT_ID": 67050, "ELEMENT_SET_NO": 999, "REV_AT_EPOCH": 250, "BSTAR": -0.023166484, "MEAN_MOTION_DOT": -0.01971463, "MEAN_MOTION_DDOT": 0}, "tle": {"line1": "1 67050U 25294W   25360.91668981 -.01971463  00000+0 -23166-1 0  9995", "line2": "2 67050  42.9999  95.6053 0001596 281.7812  92.0831 15.63873178  2509"}}, "geometry": {"type": "Point", "coordinates": [-115.95871450274393, 24.91848289389161]}}]}